{
    "links": {
        "self": "http://www.neowsapp.com/rest/v1/neo/3661269?api_key=iIulBulltgU6a56xZRHN4H3l9WmuAYTsLGpBGhQ2"
    },
    "id": "3661269",
    "neo_reference_id": "3661269",
    "name": "(2014 CR)",
    "designation": "2014 CR",
    "nasa_jpl_url": "http://ssd.jpl.nasa.gov/sbdb.cgi?sstr=3661269",
    "absolute_magnitude_h": 22.5,
    "estimated_diameter": {
        "kilometers": {
            "estimated_diameter_min": 0.0840533402,
            "estimated_diameter_max": 0.1879489824
        },
        "meters": {
            "estimated_diameter_min": 84.0533402073,
            "estimated_diameter_max": 187.9489824394
        },
        "miles": {
            "estimated_diameter_min": 0.0522283081,
            "estimated_diameter_max": 0.1167860472
        },
        "feet": {
            "estimated_diameter_min": 275.7655606856,
            "estimated_diameter_max": 616.6305395464
        }
    },
    "is_potentially_hazardous_asteroid": false,
    "close_approach_data": [
        {
            "close_approach_date": "2014-02-24",
            "close_approach_date_full": "2014-Feb-24 00:22",
            "epoch_date_close_approach": 1393201320000,
            "relative_velocity": {
                "kilometers_per_second": "12.0221757791",
                "kilometers_per_hour": "43279.8328049026",
                "miles_per_hour": "26892.4050003574"
            },
            "miss_distance": {
                "astronomical": "0.0212585281",
                "lunar": "8.2695674309",
                "kilometers": "3180230.523095147",
                "miles": "1976103.6139091486"
            },
            "orbiting_body": "Earth"
        },
        {
            "close_approach_date": "2017-06-27",
            "close_approach_date_full": "2017-Jun-27 02:17",
            "epoch_date_close_approach": 1498529820000,
            "relative_velocity": {
                "kilometers_per_second": "24.1456410395",
                "kilometers_per_hour": "86924.3077422158",
                "miles_per_hour": "54011.3844412674"
            },
            "miss_distance": {
                "astronomical": "0.4180717673",
                "lunar": "162.6299174797",
                "kilometers": "62542645.895215651",
                "miles": "38862198.0952159438"
            },
            "orbiting_body": "Earth"
        },
        {
            "close_approach_date": "2161-06-19",
            "close_approach_date_full": "2161-Jun-19 10:14",
            "epoch_date_close_approach": 6042075240000,
            "relative_velocity": {
                "kilometers_per_second": "18.0242479506",
                "kilometers_per_hour": "64887.2926221672",
                "miles_per_hour": "40318.4402407016"
            },
            "miss_distance": {
                "astronomical": "0.1990950634",
                "lunar": "77.4479796626",
                "kilometers": "29784197.412154958",
                "miles": "18507042.0889681004"
            },
            "orbiting_body": "Earth"
        }
    ],
    "orbital_data": {
        "orbit_id": "22",
        "orbit_determination_date": "2017-08-10 06:17:42",
        "first_observation_date": "2014-02-05",
        "last_observation_date": "2014-02-24",
        "data_arc_in_days": 19,
        "observations_used": 295,
        "orbit_uncertainty": "7",
        "minimum_orbit_intersection": ".0213705",
        "jupiter_tisserand_invariant": "3.468",
        "epoch_osculation": "2459000.5",
        "eccentricity": ".5826967941194628",
        "semi_major_axis": "2.14359676653355",
        "inclination": "4.041806150174507",
        "ascending_node_longitude": "137.8534151352999",
        "orbital_period": "1146.338996910865",
        "perihelion_distance": ".8945298027896039",
        "perihelion_argument": "60.68878446192945",
        "aphelion_distance": "3.392663730277497",
        "perihelion_time": "2459036.823954868659",
        "mean_anomaly": "348.5927079267512",
        "mean_motion": ".3140432288966196",
        "equinox": "J2000",
        "orbit_class": {
            "orbit_class_type": "APO",
            "orbit_class_description": "Near-Earth asteroid orbits which cross the Earth’s orbit similar to that of 1862 Apollo",
            "orbit_class_range": "a (semi-major axis) > 1.0 AU; q (perihelion) < 1.017 AU"
        }
    },
    "is_sentry_object": false
}